CAS-2T & KS-1Q          
1 41847U 16066G   21092.15553240  .00000182  00000-0  36694-4 0  9995
2 41847  98.6105 150.9354 0366462  88.1421 276.1690 14.38168856230919
NAYIF-1 (EO-88)         
1 42017U 17008BX  21092.13703320  .00002958  00000-0  11166-3 0  9995
2 42017  97.3224 161.0974 0006669  34.6179 325.5493 15.27781780229604
ZHUHAI-1 02 (CAS-4B)    
1 42759U 17034B   21092.49052944  .00000326  00000-0  32997-4 0  9998
2 42759  43.0175 238.6767 0008583  40.4207   9.3821 15.10136682209668
ZHUHAI-1 01 (CAS-4A)    
1 42761U 17034D   21092.48560014  .00000340  00000-0  33817-4 0  9990
2 42761  43.0173 237.8095 0008929  42.2622   7.0159 15.10218017209661
MAX VALIER SAT          
1 42778U 17036P   21092.44277322  .00001698  00000-0  74151-4 0  9996
2 42778  97.2649 143.5177 0013760  86.1456 274.1355 15.23371413209718
RADFXSAT (FOX-1B)       
1 43017U 17073E   21091.50304019  .00000681  00000-0  57974-4 0  9999
2 43017  97.7123 358.5303 0255049 191.0990 168.4533 14.79410885181745
FOX-1D (AO-92)          
1 43137U 18004AC  21092.15956343  .00001940  00000-0  80547-4 0  9993
2 43137  97.4118 166.9654 0010407 116.1706 244.0604 15.24993231179029
DIWATA-2B               
1 43678U 18084H   21092.52234685  .00000495  00000-0  54900-4 0  9998
2 43678  97.9101 217.4638 0008764 307.9295  52.1117 14.91730126132117
ES'HAIL 2               
1 43700U 18090A   21091.69047023  .00000132  00000-0  00000-0 0  9992
2 43700   0.0187 163.9859 0002729 246.9721  53.6480  1.00272235  8606
FOX-1CLIFF (AO-95)      
1 43770U 18099N   21092.16310756  .00000304  00000-0  32818-4 0  9994
2 43770  97.6712 164.0161 0013364 317.4127  42.6057 14.95249514127059
ITASAT 1                
1 43786U 18099AE  21092.23135547  .00000222  00000-0  25123-4 0  9992
2 43786  97.6731 164.7080 0013894 309.6104  50.3890 14.95554108127093
JY1SAT (JO-97)          
1 43803U 18099AX  21092.14050381  .00000934  00000-0  88780-4 0  9992
2 43803  97.6690 164.3806 0013692 309.3604  50.6404 14.95781908127080
UWE-4                   
1 43880U 18111E   21092.24220115  .00000433  00000-0  42813-4 0  9998
2 43880  97.6918   1.2612 0012589   7.4394 352.7012 14.96789372121683
PSAT2 (NO-104)          
1 44354U 19036R   21091.83484247  .00024360  00000-0  33058-3 0  9999
2 44354  28.5283 277.1445 0333359 166.3950 194.5885 15.11473717 97368
BRICSAT2 (NO-103)       
1 44355U 19036S   21092.42003077  .00043406  00000-0  50429-3 0  9997
2 44355  28.5266 239.5960 0280104 227.5880 130.0699 15.25218981 97784
JAISAT-1                
1 44419U 19038F   21092.41707573  .00001517  00000-0  88033-4 0  9991
2 44419  97.5806  57.4503 0020163 210.8036 149.2013 15.13544977 96297
DUCHIFAT-3              
1 44854U 19089C   21092.54685726  .00000803  00000-0  70706-4 0  9994
2 44854  36.9646 189.4990 0008636 252.4549 107.5244 14.99405188 71702
RS-44 & BREEZE-KM R/B   
1 44909U 19096E   21091.77332886  .00000025  00000-0  65258-4 0  9995
2 44909  82.5238 163.7629 0216174 272.3821  85.2547 12.79709271 59039
ORBITAL FACTORY 2 (OF-2)
1 45113U 19071C   21092.32388755  .00004690  00000-0  14593-3 0  9991
2 45113  51.6434  46.4839 0012518  21.5899 338.5610 15.35198205 65471
HUSKYSAT-1 (HO-107)     
1 45119U 19071J   21091.88195655  .00005037  00000-0  15560-3 0  9993
2 45119  51.6427  48.0305 0011787  16.7379 343.3990 15.35263478 65404
BY70-2                  
1 45857U 20042B   21092.42720271  .00001436  00000-0  21170-3 0  9994
2 45857  97.9865 168.9663 0012949 100.8798 259.3862 14.76815625 40321
SALSAT                  
1 46495U 20068K   21091.98796844 -.00000061  00000-0  99758-7 0  9995
2 46495  97.6865  29.9664 0017014 336.6624  23.3807 15.03384873 27846
BY70-3                  
1 46839U 20079N   21092.49677968  .00003664  00000-0  11665-3 0  9999
2 46839  97.2453 167.8686 0008889 114.6671  10.7242 15.33167177 22565
RADFXSAT-2 (AO-109)     
1 47311U 21002C   21091.93258919  .00001336  00000-0  70706-4 0  9997
2 47311  60.6872 217.5924 0024149   3.1357 356.9876 15.21417980 11235
UVSQ-SAT                
1 47438U 21006AB  21092.39441098  .00001158  00000-0  69238-4 0  9994
2 47438  97.4958 154.9553 0012811   8.4038 351.7405 15.12967411 10551
